start=new Date('2022-07-31T00:00:00.000Z').valueOf();
sats=[{"ARG_OF_PERICENTER":"76.4933","PERIAPSIS":"546.320","TIME_SYSTEM":"UTC","GP_ID":"209223650","FILE":"3525638","REV_AT_EPOCH":"14958","MEAN_MOTION":"15.06389374","MEAN_MOTION_DOT":"0.00000232","PERIOD":"95.593","MEAN_ELEMENT_THEORY":"SGP4","RA_OF_ASC_NODE":"22.3595","APOAPSIS":"548.173","LAUNCH_DATE":"2019-11-11","CLASSIFICATION_TYPE":"U","ELEMENT_SET_NO":"999","COUNTRY_CODE":"US","MEAN_MOTION_DDOT":"0.0000000000000","CENTER_NAME":"EARTH","EPHEMERIS_TYPE":"0","OBJECT_NAME":"STARLINK-1063","OBJECT_TYPE":"PAYLOAD","TLE_LINE2":"2 44768  53.0561  22.3595 0001338  76.4933 283.6205 15.06389374149583","TLE_LINE1":"1 44768U 19074BH  22211.90793843  .00000232  00000-0  34461-4 0  9990","DECAY_DATE":null,"ECCENTRICITY":"0.00013380","SEMIMAJOR_AXIS":"6925.381","NORAD_CAT_ID":"44768","EPOCH":"2022-07-30T21:47:25.880352","BSTAR":"0.00003446100000","OBJECT_ID":"2019-074BH","MEAN_ANOMALY":"283.6205","INCLINATION":"53.0561","RCS_SIZE":"LARGE","SITE":"AFETR","REF_FRAME":"TEME"},{"TLE_LINE1":"1 44770U 19074BK  22211.81498472  .00009236  00000-0  47023-3 0  9993","DECAY_DATE":null,"ECCENTRICITY":"0.00019960","SEMIMAJOR_AXIS":"6891.568","NORAD_CAT_ID":"44770","BSTAR":"0.00047023000000","EPOCH":"2022-07-30T19:33:34.679808","OBJECT_ID":"2019-074BK","REF_FRAME":"TEME","MEAN_ANOMALY":"227.3866","INCLINATION":"52.9997","RCS_SIZE":"LARGE","SITE":"AFETR","RA_OF_ASC_NODE":"4.1167","APOAPSIS":"514.809","LAUNCH_DATE":"2019-11-11","CLASSIFICATION_TYPE":"U","ELEMENT_SET_NO":"999","ARG_OF_PERICENTER":"132.7296","PERIAPSIS":"512.058","TIME_SYSTEM":"UTC","GP_ID":"209223900","FILE":"3525638","MEAN_MOTION":"15.17489459","REV_AT_EPOCH":"14978","PERIOD":"94.894","MEAN_ELEMENT_THEORY":"SGP4","MEAN_MOTION_DOT":"0.00009236","EPHEMERIS_TYPE":"0","OBJECT_NAME":"STARLINK-1065","OBJECT_TYPE":"PAYLOAD","TLE_LINE2":"2 44770  52.9997   4.1167 0001996 132.7296 227.3866 15.17489459149785","MEAN_MOTION_DDOT":"0.0000000000000","COUNTRY_CODE":"US","CENTER_NAME":"EARTH"},{"PERIOD":"95.592","MEAN_ELEMENT_THEORY":"SGP4","MEAN_MOTION_DOT":"0.00000044","MEAN_MOTION":"15.06398773","GP_ID":"209225151","FILE":"3525638","REV_AT_EPOCH":"14957","TIME_SYSTEM":"UTC","PERIAPSIS":"546.113","ARG_OF_PERICENTER":"75.1145","ELEMENT_SET_NO":"999","LAUNCH_DATE":"2019-11-11","CLASSIFICATION_TYPE":"U","APOAPSIS":"548.321","RA_OF_ASC_NODE":"22.4185","CENTER_NAME":"EARTH","MEAN_MOTION_DDOT":"0.0000000000000","COUNTRY_CODE":"US","TLE_LINE2":"2 44771  53.0562  22.4185 0001594  75.1145 285.0021 15.06398773149573","OBJECT_TYPE":"PAYLOAD","OBJECT_NAME":"STARLINK-1067","EPHEMERIS_TYPE":"0","OBJECT_ID":"2019-074BL","BSTAR":"0.00002184700000","EPOCH":"2022-07-30T21:31:29.615520","NORAD_CAT_ID":"44771","SEMIMAJOR_AXIS":"6925.352","DECAY_DATE":null,"ECCENTRICITY":"0.00015940","TLE_LINE1":"1 44771U 19074BL  22211.89687055  .00000044  00000-0  21847-4 0  9994","SITE":"AFETR","RCS_SIZE":"LARGE","INCLINATION":"53.0562","MEAN_ANOMALY":"285.0021","REF_FRAME":"TEME"},{"SITE":"AFETR","RCS_SIZE":"LARGE","INCLINATION":"53.0561","MEAN_ANOMALY":"269.7838","REF_FRAME":"TEME","EPOCH":"2022-07-30T19:42:41.850144","BSTAR":"0.00001316300000","OBJECT_ID":"2019-074BM","SEMIMAJOR_AXIS":"6925.382","NORAD_CAT_ID":"44772","DECAY_DATE":null,"ECCENTRICITY":"0.00013830","TLE_LINE1":"1 44772U 19074BM  22211.82131771 -.00000085  00000-0  13163-4 0  9995","CENTER_NAME":"EARTH","COUNTRY_CODE":"US","MEAN_MOTION_DDOT":"0.0000000000000","TLE_LINE2":"2 44772  53.0561   2.7630 0001383  90.3310 269.7838 15.06389050149830","OBJECT_TYPE":"PAYLOAD","EPHEMERIS_TYPE":"0","OBJECT_NAME":"STARLINK-1068","PERIOD":"95.593","MEAN_MOTION_DOT":"-0.00000085","MEAN_ELEMENT_THEORY":"SGP4","MEAN_MOTION":"15.06389050","GP_ID":"209225401","FILE":"3525638","REV_AT_EPOCH":"14983","TIME_SYSTEM":"UTC","ARG_OF_PERICENTER":"90.3310","PERIAPSIS":"546.289","ELEMENT_SET_NO":"999","CLASSIFICATION_TYPE":"U","LAUNCH_DATE":"2019-11-11","RA_OF_ASC_NODE":"2.7630","APOAPSIS":"548.205"},{"TLE_LINE1":"1 44914U 20001A   22211.83789508  .00000019  00000-0  20184-4 0  9990","DECAY_DATE":null,"ECCENTRICITY":"0.00022900","SEMIMAJOR_AXIS":"6925.349","NORAD_CAT_ID":"44914","EPOCH":"2022-07-30T20:06:34.134912","BSTAR":"0.00002018400000","OBJECT_ID":"2020-001A","REF_FRAME":"TEME","MEAN_ANOMALY":"294.5161","INCLINATION":"53.0547","SITE":"AFETR","RCS_SIZE":"LARGE","RA_OF_ASC_NODE":"142.6805","APOAPSIS":"548.800","LAUNCH_DATE":"2020-01-07","CLASSIFICATION_TYPE":"U","ELEMENT_SET_NO":"999","ARG_OF_PERICENTER":"65.6067","PERIAPSIS":"545.628","TIME_SYSTEM":"UTC","MEAN_MOTION":"15.06399804","GP_ID":"209223914","FILE":"3525638","REV_AT_EPOCH":"14121","PERIOD":"95.592","MEAN_ELEMENT_THEORY":"SGP4","MEAN_MOTION_DOT":"0.00000019","EPHEMERIS_TYPE":"0","OBJECT_NAME":"STARLINK-1073","OBJECT_TYPE":"PAYLOAD","TLE_LINE2":"2 44914  53.0547 142.6805 0002290  65.6067 294.5161 15.06399804141219","COUNTRY_CODE":"US","MEAN_MOTION_DDOT":"0.0000000000000","CENTER_NAME":"EARTH"},{"ARG_OF_PERICENTER":"67.8852","PERIAPSIS":"546.089","TIME_SYSTEM":"UTC","FILE":"3525601","GP_ID":"209204256","REV_AT_EPOCH":"14117","MEAN_MOTION":"15.06391148","MEAN_MOTION_DOT":"-0.00000138","PERIOD":"95.593","MEAN_ELEMENT_THEORY":"SGP4","RA_OF_ASC_NODE":"144.0412","APOAPSIS":"548.392","CLASSIFICATION_TYPE":"U","LAUNCH_DATE":"2020-01-07","ELEMENT_SET_NO":"999","MEAN_MOTION_DDOT":"0.0000000000000","COUNTRY_CODE":"US","CENTER_NAME":"EARTH","EPHEMERIS_TYPE":"0","OBJECT_NAME":"STARLINK-1084","OBJECT_TYPE":"PAYLOAD","TLE_LINE2":"2 44915  53.0560 144.0412 0001663  67.8852 292.2313 15.06391148141176","TLE_LINE1":"1 44915U 20001B   22211.53565431 -.00000138  00000-0  96548-5 0  9996","ECCENTRICITY":"0.00016630","DECAY_DATE":null,"SEMIMAJOR_AXIS":"6925.376","NORAD_CAT_ID":"44915","BSTAR":"0.00000965480000","EPOCH":"2022-07-30T12:51:20.532384","OBJECT_ID":"2020-001B","MEAN_ANOMALY":"292.2313","INCLINATION":"53.0560","RCS_SIZE":"LARGE","SITE":"AFETR","REF_FRAME":"TEME"},{"RA_OF_ASC_NODE":"144.0214","APOAPSIS":"548.344","CLASSIFICATION_TYPE":"U","LAUNCH_DATE":"2020-01-07","ELEMENT_SET_NO":"999","ARG_OF_PERICENTER":"67.7791","PERIAPSIS":"546.076","TIME_SYSTEM":"UTC","GP_ID":"209203938","FILE":"3525582","REV_AT_EPOCH":"14117","MEAN_MOTION":"15.06401138","MEAN_MOTION_DOT":"0.00000740","PERIOD":"95.592","MEAN_ELEMENT_THEORY":"SGP4","EPHEMERIS_TYPE":"0","OBJECT_NAME":"STARLINK-1098","OBJECT_TYPE":"PAYLOAD","TLE_LINE2":"2 44917  53.0544 144.0214 0001638  67.7791 292.3372 15.06401138141170","MEAN_MOTION_DDOT":"0.0000000000000","COUNTRY_CODE":"US","CENTER_NAME":"EARTH","TLE_LINE1":"1 44917U 20001D   22211.53933748  .00000740  00000-0  68542-4 0  9998","DECAY_DATE":null,"ECCENTRICITY":"0.00016380","SEMIMAJOR_AXIS":"6925.345","NORAD_CAT_ID":"44917","EPOCH":"2022-07-30T12:56:38.758272","BSTAR":"0.00006854200000","OBJECT_ID":"2020-001D","REF_FRAME":"TEME","MEAN_ANOMALY":"292.3372","INCLINATION":"53.0544","RCS_SIZE":"LARGE","SITE":"AFETR"},{"REF_FRAME":"TEME","INCLINATION":"53.0554","MEAN_ANOMALY":"275.6208","SITE":"AFETR","RCS_SIZE":"LARGE","DECAY_DATE":null,"ECCENTRICITY":"0.00015380","TLE_LINE1":"1 44918U 20001E   22211.55314271  .00000010  00000-0  19574-4 0  9996","OBJECT_ID":"2020-001E","BSTAR":"0.00001957400000","EPOCH":"2022-07-30T13:16:31.530144","NORAD_CAT_ID":"44918","SEMIMAJOR_AXIS":"6925.380","OBJECT_TYPE":"PAYLOAD","OBJECT_NAME":"STARLINK-1099","EPHEMERIS_TYPE":"0","TLE_LINE2":"2 44918  53.0554 143.9806 0001538  84.4956 275.6208 15.06389659141912","COUNTRY_CODE":"US","MEAN_MOTION_DDOT":"0.0000000000000","CENTER_NAME":"EARTH","APOAPSIS":"548.310","RA_OF_ASC_NODE":"143.9806","ELEMENT_SET_NO":"999","CLASSIFICATION_TYPE":"U","LAUNCH_DATE":"2020-01-07","TIME_SYSTEM":"UTC","PERIAPSIS":"546.180","ARG_OF_PERICENTER":"84.4956","PERIOD":"95.593","MEAN_ELEMENT_THEORY":"SGP4","MEAN_MOTION_DOT":"0.00000010","REV_AT_EPOCH":"14191","GP_ID":"209169223","FILE":"3525407","MEAN_MOTION":"15.06389659"},{"MEAN_MOTION_DDOT":"0.0000000000000","COUNTRY_CODE":"US","CENTER_NAME":"EARTH","OBJECT_TYPE":"PAYLOAD","EPHEMERIS_TYPE":"0","OBJECT_NAME":"STARLINK-1102","TLE_LINE2":"2 44920  53.0549 142.7265 0001144  69.8000 290.3112 15.06407231141213","TIME_SYSTEM":"UTC","ARG_OF_PERICENTER":"69.8000","PERIAPSIS":"546.399","PERIOD":"95.592","MEAN_ELEMENT_THEORY":"SGP4","MEAN_MOTION_DOT":"0.00001309","GP_ID":"209224415","REV_AT_EPOCH":"14121","FILE":"3525638","MEAN_MOTION":"15.06407231","RA_OF_ASC_NODE":"142.7265","APOAPSIS":"547.984","ELEMENT_SET_NO":"999","LAUNCH_DATE":"2020-01-07","CLASSIFICATION_TYPE":"U","INCLINATION":"53.0549","MEAN_ANOMALY":"290.3112","RCS_SIZE":"LARGE","SITE":"AFETR","REF_FRAME":"TEME","ECCENTRICITY":"0.00011440","DECAY_DATE":null,"TLE_LINE1":"1 44920U 20001G   22211.83053608  .00001309  00000-0  10674-3 0  9997","BSTAR":"0.00010674000000","EPOCH":"2022-07-30T19:55:58.317312","OBJECT_ID":"2020-001G","SEMIMAJOR_AXIS":"6925.326","NORAD_CAT_ID":"44920"},{"OBJECT_TYPE":"PAYLOAD","OBJECT_NAME":"STARLINK-1103","EPHEMERIS_TYPE":"0","TLE_LINE2":"2 44921  53.0564 144.1034 0001662  81.9433 278.1744 15.06391399141145","COUNTRY_CODE":"US","MEAN_MOTION_DDOT":"0.0000000000000","CENTER_NAME":"EARTH","APOAPSIS":"548.391","RA_OF_ASC_NODE":"144.1034","ELEMENT_SET_NO":"999","CLASSIFICATION_TYPE":"U","LAUNCH_DATE":"2020-01-07","TIME_SYSTEM":"UTC","PERIAPSIS":"546.089","ARG_OF_PERICENTER":"81.9433","PERIOD":"95.593","MEAN_ELEMENT_THEORY":"SGP4","MEAN_MOTION_DOT":"-0.00001576","GP_ID":"209203948","MEAN_MOTION":"15.06391399","FILE":"3525583","REV_AT_EPOCH":"14114","REF_FRAME":"TEME","INCLINATION":"53.0564","MEAN_ANOMALY":"278.1744","RCS_SIZE":"LARGE","SITE":"AFETR","DECAY_DATE":null,"ECCENTRICITY":"0.00016620","TLE_LINE1":"1 44921U 20001H   22211.51996798 -.00001576  00000-0 -86954-4 0  9992","OBJECT_ID":"2020-001H","EPOCH":"2022-07-30T12:28:45.233472","BSTAR":"-0.00008695400000","NORAD_CAT_ID":"44921","SEMIMAJOR_AXIS":"6925.375"}];
